ONEWEB-0140             
1 47286U 20100AE  25269.87487121 -.00000180  00000+0 -53453-3 0  9995
2 47286  87.8929  42.9449 0001636 103.3518 256.7793 13.12444885230151
ONEWEB-0141             
1 47287U 20100AF  25269.92015147  .00000007  00000+0 -16226-4 0  9992
2 47287  87.8919  42.9502 0001919  94.2600 265.8748 13.12442911230143
ONEWEB-0142             
1 47288U 20100AG  25269.90909044  .00000373  00000+0  10026-2 0  9994
2 47288  87.8933  42.9694 0002028 100.6316 259.5041 13.12441133230130
ONEWEB-0143             
1 47289U 20100AH  25269.91866389  .00000047  00000+0  94733-4 0  9997
2 47289  87.8927  42.9642 0001618  97.3992 262.7321 13.12442574230118
ONEWEB-0144             
1 47290U 20100AJ  25269.89109918  .00000263  00000+0  69673-3 0  9998
2 47290  87.8924  42.9437 0001836 104.5897 255.5435 13.12444512230037
ONEWEB-0145             
1 47291U 20100AK  25269.93812498 -.00000473  00000+0 -13515-2 0  9996
2 47291  87.8927  42.9662 0001683 101.4077 258.7241 13.12444211230235
ONEWEB-0146             
1 47292U 20100AL  25269.93488127 -.00000629  00000+0 -17846-2 0  9999
2 47292  87.8929  42.9539 0001398  88.4508 271.6781 13.12441756230141
ONEWEB-0147             
1 47293U 20100AM  25269.74835082  .00000424  00000+0  11426-2 0  9994
2 47293  87.8931  42.9694 0001508 107.2557 252.8737 13.12441475230010
ONEWEB-0115             
1 48042U 21025A   25269.75358681  .00000159  00000+0  40148-3 0  9999
2 48042  87.9051  12.5509 0001689  98.4787 261.6534 13.13468367219011
ONEWEB-0152             
1 48043U 21025B   25269.69094621 -.00000153  00000+0 -45483-3 0  9997
2 48043  87.9050  12.5770 0001618 100.2019 259.9292 13.13471394218961
ONEWEB-0153             
1 48044U 21025C   25269.74512469  .00000337  00000+0  88735-3 0  9998
2 48044  87.9054  12.5663 0001778 101.3440 258.7890 13.13471631218969
ONEWEB-0154             
1 48045U 21025D   25269.74174219  .00000410  00000+0  10868-2 0  9999
2 48045  87.9051  12.5638 0001672 102.2299 257.9017 13.13469399218920
ONEWEB-0116             
1 48046U 21025E   25269.70448690 -.00000508  00000+0 -14262-2 0  9995
2 48046  87.9053  12.5534 0001648  99.1027 261.0289 13.13468801219064
ONEWEB-0150             
1 48047U 21025F   25269.75697279  .00000046  00000+0  92211-4 0  9997
2 48047  87.9051  12.5383 0001880  96.3202 263.8142 13.13468435218966
ONEWEB-0107             
1 48048U 21025G   25269.75867563 -.00000045  00000+0 -15736-3 0  9990
2 48048  87.9051  12.5356 0001988 106.6953 253.4394 13.13468263218945
ONEWEB-0101             
1 48049U 21025H   25269.79760486 -.00000050  00000+0 -17099-3 0  9991
2 48049  87.9047  12.5664 0001747 105.7804 254.3518 13.13468995218929
