[{"OBJECT_NAME":"ONEWEB-0140","OBJECT_ID":"2020-100AE","EPOCH":"2025-09-26T20:59:48.872544","MEAN_MOTION":13.12444885,"ECCENTRICITY":0.00016369,"INCLINATION":87.8929,"RA_OF_ASC_NODE":42.9449,"ARG_OF_PERICENTER":103.3518,"MEAN_ANOMALY":256.7793,"EPHEMERIS_TYPE":0,"CLASSIFICATION_TYPE":"U","NORAD_CAT_ID":47286,"ELEMENT_SET_NO":999,"REV_AT_EPOCH":23015,"BSTAR":-0.00053453312,"MEAN_MOTION_DOT":-1.8e-6,"MEAN_MOTION_DDOT":0},{"OBJECT_NAME":"ONEWEB-0141","OBJECT_ID":"2020-100AF","EPOCH":"2025-09-26T22:05:01.087008","MEAN_MOTION":13.12442911,"ECCENTRICITY":0.00019194,"INCLINATION":87.8919,"RA_OF_ASC_NODE":42.9502,"ARG_OF_PERICENTER":94.26,"MEAN_ANOMALY":265.8748,"EPHEMERIS_TYPE":0,"CLASSIFICATION_TYPE":"U","NORAD_CAT_ID":47287,"ELEMENT_SET_NO":999,"REV_AT_EPOCH":23014,"BSTAR":-1.6225864e-5,"MEAN_MOTION_DOT":7.0e-8,"MEAN_MOTION_DDOT":0},{"OBJECT_NAME":"ONEWEB-0142","OBJECT_ID":"2020-100AG","EPOCH":"2025-09-26T21:49:05.414016","MEAN_MOTION":13.12441133,"ECCENTRICITY":0.00020283,"INCLINATION":87.8933,"RA_OF_ASC_NODE":42.9694,"ARG_OF_PERICENTER":100.6316,"MEAN_ANOMALY":259.5041,"EPHEMERIS_TYPE":0,"CLASSIFICATION_TYPE":"U","NORAD_CAT_ID":47288,"ELEMENT_SET_NO":999,"REV_AT_EPOCH":23013,"BSTAR":0.001002585,"MEAN_MOTION_DOT":3.73e-6,"MEAN_MOTION_DDOT":0},{"OBJECT_NAME":"ONEWEB-0143","OBJECT_ID":"2020-100AH","EPOCH":"2025-09-26T22:02:52.560096","MEAN_MOTION":13.12442574,"ECCENTRICITY":0.00016186,"INCLINATION":87.8927,"RA_OF_ASC_NODE":42.9642,"ARG_OF_PERICENTER":97.3992,"MEAN_ANOMALY":262.7321,"EPHEMERIS_TYPE":0,"CLASSIFICATION_TYPE":"U","NORAD_CAT_ID":47289,"ELEMENT_SET_NO":999,"REV_AT_EPOCH":23011,"BSTAR":9.4732709e-5,"MEAN_MOTION_DOT":4.7e-7,"MEAN_MOTION_DDOT":0},{"OBJECT_NAME":"ONEWEB-0144","OBJECT_ID":"2020-100AJ","EPOCH":"2025-09-26T21:23:10.969152","MEAN_MOTION":13.12444512,"ECCENTRICITY":0.00018368,"INCLINATION":87.8924,"RA_OF_ASC_NODE":42.9437,"ARG_OF_PERICENTER":104.5897,"MEAN_ANOMALY":255.5435,"EPHEMERIS_TYPE":0,"CLASSIFICATION_TYPE":"U","NORAD_CAT_ID":47290,"ELEMENT_SET_NO":999,"REV_AT_EPOCH":23003,"BSTAR":0.00069673392,"MEAN_MOTION_DOT":2.63e-6,"MEAN_MOTION_DDOT":0},{"OBJECT_NAME":"ONEWEB-0145","OBJECT_ID":"2020-100AK","EPOCH":"2025-09-26T22:30:53.998272","MEAN_MOTION":13.12444211,"ECCENTRICITY":0.00016835,"INCLINATION":87.8927,"RA_OF_ASC_NODE":42.9662,"ARG_OF_PERICENTER":101.4077,"MEAN_ANOMALY":258.7241,"EPHEMERIS_TYPE":0,"CLASSIFICATION_TYPE":"U","NORAD_CAT_ID":47291,"ELEMENT_SET_NO":999,"REV_AT_EPOCH":23023,"BSTAR":-0.0013515304,"MEAN_MOTION_DOT":-4.73e-6,"MEAN_MOTION_DDOT":0},{"OBJECT_NAME":"ONEWEB-0146","OBJECT_ID":"2020-100AL","EPOCH":"2025-09-26T22:26:13.741728","MEAN_MOTION":13.12441756,"ECCENTRICITY":0.00013982,"INCLINATION":87.8929,"RA_OF_ASC_NODE":42.9539,"ARG_OF_PERICENTER":88.4508,"MEAN_ANOMALY":271.6781,"EPHEMERIS_TYPE":0,"CLASSIFICATION_TYPE":"U","NORAD_CAT_ID":47292,"ELEMENT_SET_NO":999,"REV_AT_EPOCH":23014,"BSTAR":-0.001784585,"MEAN_MOTION_DOT":-6.29e-6,"MEAN_MOTION_DDOT":0},{"OBJECT_NAME":"ONEWEB-0147","OBJECT_ID":"2020-100AM","EPOCH":"2025-09-26T17:57:37.510848","MEAN_MOTION":13.12441475,"ECCENTRICITY":0.00015085,"INCLINATION":87.8931,"RA_OF_ASC_NODE":42.9694,"ARG_OF_PERICENTER":107.2557,"MEAN_ANOMALY":252.8737,"EPHEMERIS_TYPE":0,"CLASSIFICATION_TYPE":"U","NORAD_CAT_ID":47293,"ELEMENT_SET_NO":999,"REV_AT_EPOCH":23001,"BSTAR":0.0011426402,"MEAN_MOTION_DOT":4.24e-6,"MEAN_MOTION_DDOT":0},{"OBJECT_NAME":"ONEWEB-0115","OBJECT_ID":"2021-025A","EPOCH":"2025-09-26T18:05:09.900384","MEAN_MOTION":13.13468367,"ECCENTRICITY":0.00016896,"INCLINATION":87.9051,"RA_OF_ASC_NODE":12.5509,"ARG_OF_PERICENTER":98.4787,"MEAN_ANOMALY":261.6534,"EPHEMERIS_TYPE":0,"CLASSIFICATION_TYPE":"U","NORAD_CAT_ID":48042,"ELEMENT_SET_NO":999,"REV_AT_EPOCH":21901,"BSTAR":0.00040147893,"MEAN_MOTION_DOT":1.59e-6,"MEAN_MOTION_DDOT":0},{"OBJECT_NAME":"ONEWEB-0152","OBJECT_ID":"2021-025B","EPOCH":"2025-09-26T16:34:57.752544","MEAN_MOTION":13.13471394,"ECCENTRICITY":0.00016183,"INCLINATION":87.905,"RA_OF_ASC_NODE":12.577,"ARG_OF_PERICENTER":100.2019,"MEAN_ANOMALY":259.9292,"EPHEMERIS_TYPE":0,"CLASSIFICATION_TYPE":"U","NORAD_CAT_ID":48043,"ELEMENT_SET_NO":999,"REV_AT_EPOCH":21896,"BSTAR":-0.00045482883,"MEAN_MOTION_DOT":-1.53e-6,"MEAN_MOTION_DDOT":0},{"OBJECT_NAME":"ONEWEB-0153","OBJECT_ID":"2021-025C","EPOCH":"2025-09-26T17:52:58.773216","MEAN_MOTION":13.13471631,"ECCENTRICITY":0.00017788,"INCLINATION":87.9054,"RA_OF_ASC_NODE":12.5663,"ARG_OF_PERICENTER":101.344,"MEAN_ANOMALY":258.789,"EPHEMERIS_TYPE":0,"CLASSIFICATION_TYPE":"U","NORAD_CAT_ID":48044,"ELEMENT_SET_NO":999,"REV_AT_EPOCH":21896,"BSTAR":0.00088735037,"MEAN_MOTION_DOT":3.37e-6,"MEAN_MOTION_DDOT":0},{"OBJECT_NAME":"ONEWEB-0154","OBJECT_ID":"2021-025D","EPOCH":"2025-09-26T17:48:06.525216","MEAN_MOTION":13.13469399,"ECCENTRICITY":0.00016728,"INCLINATION":87.9051,"RA_OF_ASC_NODE":12.5638,"ARG_OF_PERICENTER":102.2299,"MEAN_ANOMALY":257.9017,"EPHEMERIS_TYPE":0,"CLASSIFICATION_TYPE":"U","NORAD_CAT_ID":48045,"ELEMENT_SET_NO":999,"REV_AT_EPOCH":21892,"BSTAR":0.0010867824,"MEAN_MOTION_DOT":4.1e-6,"MEAN_MOTION_DDOT":0},{"OBJECT_NAME":"ONEWEB-0116","OBJECT_ID":"2021-025E","EPOCH":"2025-09-26T16:54:27.668160","MEAN_MOTION":13.13468801,"ECCENTRICITY":0.00016483,"INCLINATION":87.9053,"RA_OF_ASC_NODE":12.5534,"ARG_OF_PERICENTER":99.1027,"MEAN_ANOMALY":261.0289,"EPHEMERIS_TYPE":0,"CLASSIFICATION_TYPE":"U","NORAD_CAT_ID":48046,"ELEMENT_SET_NO":999,"REV_AT_EPOCH":21906,"BSTAR":-0.0014261513,"MEAN_MOTION_DOT":-5.08e-6,"MEAN_MOTION_DDOT":0},{"OBJECT_NAME":"ONEWEB-0150","OBJECT_ID":"2021-025F","EPOCH":"2025-09-26T18:10:02.449056","MEAN_MOTION":13.13468435,"ECCENTRICITY":0.000188,"INCLINATION":87.9051,"RA_OF_ASC_NODE":12.5383,"ARG_OF_PERICENTER":96.3202,"MEAN_ANOMALY":263.8142,"EPHEMERIS_TYPE":0,"CLASSIFICATION_TYPE":"U","NORAD_CAT_ID":48047,"ELEMENT_SET_NO":999,"REV_AT_EPOCH":21896,"BSTAR":9.2211112e-5,"MEAN_MOTION_DOT":4.6e-7,"MEAN_MOTION_DDOT":0},{"OBJECT_NAME":"ONEWEB-0107","OBJECT_ID":"2021-025G","EPOCH":"2025-09-26T18:12:29.574432","MEAN_MOTION":13.13468263,"ECCENTRICITY":0.00019882,"INCLINATION":87.9051,"RA_OF_ASC_NODE":12.5356,"ARG_OF_PERICENTER":106.6953,"MEAN_ANOMALY":253.4394,"EPHEMERIS_TYPE":0,"CLASSIFICATION_TYPE":"U","NORAD_CAT_ID":48048,"ELEMENT_SET_NO":999,"REV_AT_EPOCH":21894,"BSTAR":-0.00015735545,"MEAN_MOTION_DOT":-4.5e-7,"MEAN_MOTION_DDOT":0},{"OBJECT_NAME":"ONEWEB-0101","OBJECT_ID":"2021-025H","EPOCH":"2025-09-26T19:08:33.059904","MEAN_MOTION":13.13468995,"ECCENTRICITY":0.00017479,"INCLINATION":87.9047,"RA_OF_ASC_NODE":12.5664,"ARG_OF_PERICENTER":105.7804,"MEAN_ANOMALY":254.3518,"EPHEMERIS_TYPE":0,"CLASSIFICATION_TYPE":"U","NORAD_CAT_ID":48049,"ELEMENT_SET_NO":999,"REV_AT_EPOCH":21892,"BSTAR":-0.00017099282,"MEAN_MOTION_DOT":-5.0e-7,"MEAN_MOTION_DDOT":0}]
